GSAT0101 (PRN E11)      
1 37846U 11060A   24192.01346543 -.00000094  00000+0  00000+0 0  9992
2 37846  57.1277   0.9163 0003072  57.8199 302.2143  1.70476069 79066
GSAT0102 (PRN E12)      
1 37847U 11060B   24192.23180782 -.00000094  00000+0  00000+0 0  9998
2 37847  57.1305   0.9103 0002501  16.1378 163.5394  1.70475534 79079
GSAT0103 (PRN E19)      
1 38857U 12055A   24193.22591481 -.00000003  00000+0  00000+0 0  9997
2 38857  55.4159 120.9452 0004015 282.4726  77.4731  1.70473662 72976
GSAT0201 (PRN E18)      
1 40128U 14050A   24191.18609220 -.00000094  00000+0  00000+0 0  9992
2 40128  49.6368 302.1806 1612130 152.1181 217.5779  1.85519607 65186
GSAT0202 (PRN E14)      
1 40129U 14050B   24191.98329310 -.00000094  00000+0  00000+0 0  9990
2 40129  49.6528 301.2256 1611021 152.9489 216.4834  1.85520292 67365
GSAT0203 (PRN E26)      
1 40544U 15017A   24191.79268287 -.00000095  00000+0  00000+0 0  9990
2 40544  56.9253   0.8530 0001720 242.4123 117.5742  1.70476230 57147
GSAT0204 (PRN E22)      
1 40545U 15017B   24191.46034597 -.00000096  00000+0  00000+0 0  9991
2 40545  56.9311   0.8776 0002080 209.7332 150.2587  1.70475834 20187
GSAT0205 (PRN E24)      
1 40889U 15045A   24193.57487665  .00000033  00000+0  00000+0 0  9995
2 40889  55.2065 241.0963 0002698 351.3389   8.7357  1.70473753 54989
GSAT0206 (PRN E30)      
1 40890U 15045B   24189.10288720  .00000030  00000+0  00000+0 0  9999
2 40890  55.2073 241.2153 0001167 354.8047   5.2893  1.70473934 54935
GSAT0209 (PRN E09)      
1 41174U 15079A   24188.68595814 -.00000023  00000+0  00000+0 0  9992
2 41174  55.4334 120.7795 0004681 322.8191  37.1117  1.70473923 52664
GSAT0208 (PRN E08)      
1 41175U 15079B   24192.42525576 -.00000005  00000+0  00000+0 0  9998
2 41175  55.4334 120.6747 0004449 319.7108  40.2440  1.70473995 53143
GSAT0211 (PRN E02)      
1 41549U 16030A   24191.96148516  .00000027  00000+0  00000+0 0  9997
2 41549  55.3545 241.1500 0003435 301.0209  59.0294  1.70473859 50610
GSAT0210 (PRN E01)      
1 41550U 16030B   24184.04059950  .00000038  00000+0  00000+0 0  9995
2 41550  55.3575 241.3690 0003090 263.9154  96.1363  1.70473957 50459
GSAT0207 (PRN E07)      
1 41859U 16069A   24193.08572914 -.00000004  00000+0  00000+0 0  9997
2 41859  55.1000 120.6544 0004224 314.2138  45.7418  1.70473826 47363
GSAT0212 (PRN E03)      
1 41860U 16069B   24189.42043311 -.00000019  00000+0  00000+0 0  9992
2 41860  55.0956 120.7521 0003837 335.1806  24.7690  1.70474109 47558
GSAT0213 (PRN E04)      
1 41861U 16069C   24192.13540755 -.00000006  00000+0  00000+0 0  9995
2 41861  55.0993 120.6836 0003911 291.1197  68.8247  1.70472636 47599
GSAT0214 (PRN E05)      
1 41862U 16069D   24191.69395005 -.00000008  00000+0  00000+0 0  9994
2 41862  55.0978 120.6894 0003934 294.8224  65.1204  1.70474175 47585
GSAT0215 (PRN E21)      
1 43055U 17079A   24189.83728242  .00000028  00000+0  00000+0 0  9999
2 43055  55.3325 241.0299 0003115 255.6102 104.4478  1.70474627 40897
GSAT0216 (PRN E25)      
1 43056U 17079B   24188.36923443  .00000033  00000+0  00000+0 0  9993
2 43056  55.3327 241.0700 0004728 266.8574  93.1855  1.70474438 40887
GSAT0217 (PRN E27)      
1 43057U 17079C   24192.10916998  .00000028  00000+0  00000+0 0  9992
2 43057  55.3332 240.9658 0003056 281.2990  78.7500  1.70474404 40935
GSAT0218 (PRN E31)      
1 43058U 17079D   24192.32922190  .00000029  00000+0  00000+0 0  9999
2 43058  55.3300 240.9574 0006106 266.5614  93.4512  1.70474474 40930
GSAT0221 (PRN E15)      
1 43564U 18060A   24191.05691246 -.00000097  00000+0  00000+0 0  9992
2 43564  57.3048   0.8787 0001940 289.7408  70.2415  1.70476048 37098
GSAT0222 (PRN E33)      
1 43565U 18060B   24191.86205334 -.00000094  00000+0  00000+0 0  9998
2 43565  57.3086   0.8592 0001995 214.1629 145.8283  1.70475854 37155
GSAT0219 (PRN E36)      
1 43566U 18060C   24192.67048377 -.00000092  00000+0  00000+0 0  9999
2 43566  57.3083   0.8393 0001263 313.3685  46.6261  1.70476127 37141
GSAT0220 (PRN E13)      
1 43567U 18060D   24188.19843621 -.00000100  00000+0  00000+0 0  9997
2 43567  57.3075   0.9593 0001474 300.0345  59.9562  1.70475891 37054
GSAT0223 (PRN E34)      
1 49809U 21116A   24193.33362420 -.00000089  00000+0  00000+0 0  9999
2 49809  57.2981   0.7158 0002263 161.5727 200.4418  1.70476263 16155
GSAT0224 (PRN E10)      
1 49810U 21116B   24193.13799587 -.00000090  00000+0  00000+0 0  9999
2 49810  57.2989   0.7195 0002043 144.6369 209.8239  1.70476285 16165
